0 COSMOS 249 DEB
1 03606U 68091Y   13282.85450579  .00000300  00000-0  32570-3 0  9373
2 03606 062.2555 155.5897 0774916 333.8304 094.6389 12.97034082100703
0 COSMOS 249 DEB
1 03606U 68091Y   13287.78795451  .00000430  00000-0  43455-3 0  9391
2 03606 062.2544 143.3468 0775134 334.9338 090.5011 12.97038837101342
0 COSMOS 249 DEB
1 03606U 68091Y   13289.79369652  .00000404  00000-0  41282-3 0  9403
2 03606 062.2542 138.3694 0775202 335.3822 095.9871 12.97041351101601
0 COSMOS 249 DEB
1 03606U 68091Y   13290.77992803  .00000599  00000-0  50339-3 0  9423
2 03606 062.2550 135.9255 0775000 335.5812 021.0653 12.97041916101732
0 COSMOS 249 DEB
1 03606U 68091Y   13291.96977773  .00000334  00000-0  35380-3 0  9431
2 03606 062.2543 132.9695 0775283 335.8684 176.8623 12.97043818101887
0 COSMOS 249 DEB
1 03606U 68091Y   13294.80687097  .00000456  00000-0  45592-3 0  9446
2 03606 062.2545 125.9287 0775449 336.4985 104.2678 12.97046128102257
